IRIDIUM 144             
1 43249U 18030A   23348.44902076  .00000270  00000+0  89290-4 0  9996
2 43249  86.3953 313.1282 0002253  84.6406 275.5047 14.34219726298882
IRIDIUM 149             
1 43250U 18030B   23348.45536219  .00000272  00000+0  90109-4 0  9994
2 43250  86.3950 313.1018 0002234  85.8061 274.3390 14.34219401298908
IRIDIUM 157             
1 43251U 18030C   23348.40460820  .00000274  00000+0  90899-4 0  9992
2 43251  86.3957 313.1574 0002152 101.6103 258.5334 14.34215504298874
IRIDIUM 140             
1 43252U 18030D   23348.42366913  .00000317  00000+0  10616-3 0  9999
2 43252  86.3953 313.1638 0002626  84.4206 275.7289 14.34219112298936
IRIDIUM 145             
1 43253U 18030E   23348.41097130  .00000274  00000+0  90930-4 0  9991
2 43253  86.3954 313.1431 0002300  82.5935 277.5522 14.34218629298860
IRIDIUM 146             
1 43254U 18030F   23348.46170555  .00000276  00000+0  91360-4 0  9990
2 43254  86.3953 313.1371 0002204  81.8795 278.2651 14.34219727298885
IRIDIUM 148             
1 43255U 18030G   23348.42999681  .00000289  00000+0  96042-4 0  9992
2 43255  86.3954 313.1799 0002028  80.3864 279.7560 14.34220132298917
IRIDIUM 142             
1 43256U 18030H   23348.39827960  .00000276  00000+0  91652-4 0  9997
2 43256  86.3951 313.1155 0002159  84.1468 275.9974 14.34218187298877
